{
    "links": {
        "self": "http://www.neowsapp.com/rest/v1/neo/3892700?api_key=iIulBulltgU6a56xZRHN4H3l9WmuAYTsLGpBGhQ2"
    },
    "id": "3892700",
    "neo_reference_id": "3892700",
    "name": "(2019 VR3)",
    "designation": "2019 VR3",
    "nasa_jpl_url": "http://ssd.jpl.nasa.gov/sbdb.cgi?sstr=3892700",
    "absolute_magnitude_h": 26.5,
    "estimated_diameter": {
        "kilometers": {
            "estimated_diameter_min": 0.0133215567,
            "estimated_diameter_max": 0.0297879063
        },
        "meters": {
            "estimated_diameter_min": 13.3215566698,
            "estimated_diameter_max": 29.7879062798
        },
        "miles": {
            "estimated_diameter_min": 0.008277629,
            "estimated_diameter_max": 0.0185093411
        },
        "feet": {
            "estimated_diameter_min": 43.7058959846,
            "estimated_diameter_max": 97.7293544391
        }
    },
    "is_potentially_hazardous_asteroid": false,
    "close_approach_data": [
        {
            "close_approach_date": "2019-10-26",
            "close_approach_date_full": "2019-Oct-26 00:52",
            "epoch_date_close_approach": 1572051120000,
            "relative_velocity": {
                "kilometers_per_second": "10.6257190837",
                "kilometers_per_hour": "38252.5887012412",
                "miles_per_hour": "23768.6710182795"
            },
            "miss_distance": {
                "astronomical": "0.0438362111",
                "lunar": "17.0522861179",
                "kilometers": "6557803.809430357",
                "miles": "4074830.3347866466"
            },
            "orbiting_body": "Earth"
        },
        {
            "close_approach_date": "2101-11-13",
            "close_approach_date_full": "2101-Nov-13 05:51",
            "epoch_date_close_approach": 4161304260000,
            "relative_velocity": {
                "kilometers_per_second": "17.6691125672",
                "kilometers_per_hour": "63608.8052418062",
                "miles_per_hour": "39524.037901499"
            },
            "miss_distance": {
                "astronomical": "0.2545324654",
                "lunar": "99.0131290406",
                "kilometers": "38077514.669688698",
                "miles": "23660270.4744241124"
            },
            "orbiting_body": "Earth"
        }
    ],
    "orbital_data": {
        "orbit_id": "1",
        "orbit_determination_date": "2019-11-06 15:42:16",
        "first_observation_date": "2019-11-05",
        "last_observation_date": "2019-11-06",
        "data_arc_in_days": 1,
        "observations_used": 18,
        "orbit_uncertainty": "8",
        "minimum_orbit_intersection": ".0436906",
        "jupiter_tisserand_invariant": "4.117",
        "epoch_osculation": "2458793.5",
        "eccentricity": ".4503573554949758",
        "semi_major_axis": "1.670697615164841",
        "inclination": "7.906615601155266",
        "ascending_node_longitude": "228.0657318499052",
        "orbital_period": "788.7605949050982",
        "perihelion_distance": ".9182866553674407",
        "perihelion_argument": "117.6958375055493",
        "aphelion_distance": "2.423108574962242",
        "perihelion_time": "2458746.065081846326",
        "mean_anomaly": "21.64987785346611",
        "mean_motion": ".4564122527486485",
        "equinox": "J2000",
        "orbit_class": {
            "orbit_class_type": "APO",
            "orbit_class_description": "Near-Earth asteroid orbits which cross the Earth’s orbit similar to that of 1862 Apollo",
            "orbit_class_range": "a (semi-major axis) > 1.0 AU; q (perihelion) < 1.017 AU"
        }
    },
    "is_sentry_object": false
}